{
  "links" : {
    "next" : "https://api.nasa.gov/neo/rest/v1/feed?start_date=2015-04-16&end_date=2015-04-16&detailed=true&api_key=t0TVs3DtDT2H8Oy2Zy8m2eVrNsAVKAexjcZXUckd",
    "prev" : "https://api.nasa.gov/neo/rest/v1/feed?start_date=2015-04-14&end_date=2015-04-14&detailed=true&api_key=t0TVs3DtDT2H8Oy2Zy8m2eVrNsAVKAexjcZXUckd",
    "self" : "https://api.nasa.gov/neo/rest/v1/feed?start_date=2015-04-15&end_date=2015-04-15&detailed=true&api_key=t0TVs3DtDT2H8Oy2Zy8m2eVrNsAVKAexjcZXUckd"
  },
  "element_count" : 6,
  "near_earth_objects" : {
    "2015-04-15" : [ {
      "links" : {
        "self" : "https://api.nasa.gov/neo/rest/v1/neo/3602839?api_key=t0TVs3DtDT2H8Oy2Zy8m2eVrNsAVKAexjcZXUckd"
      },
      "neo_reference_id" : "3602839",
      "name" : "(2012 HP13)",
      "nasa_jpl_url" : "http://ssd.jpl.nasa.gov/sbdb.cgi?sstr=3602839",
      "absolute_magnitude_h" : 24.2,
      "estimated_diameter" : {
        "kilometers" : {
          "estimated_diameter_min" : 0.0384197891,
          "estimated_diameter_max" : 0.0859092601
        },
        "meters" : {
          "estimated_diameter_min" : 38.4197891064,
          "estimated_diameter_max" : 85.9092601232
        },
        "miles" : {
          "estimated_diameter_min" : 0.0238729428,
          "estimated_diameter_max" : 0.0533815229
        },
        "feet" : {
          "estimated_diameter_min" : 126.0491808919,
          "estimated_diameter_max" : 281.8545369825
        }
      },
      "is_potentially_hazardous_asteroid" : false,
      "close_approach_data" : [ {
        "close_approach_date" : "2015-04-15",
        "epoch_date_close_approach" : 1429081200000,
        "relative_velocity" : {
          "kilometers_per_second" : "20.2345826972",
          "kilometers_per_hour" : "72844.4977097443",
          "miles_per_hour" : "45262.7380352575"
        },
        "miss_distance" : {
          "astronomical" : "0.3577037387",
          "lunar" : "139.1467590332",
          "kilometers" : "53511720",
          "miles" : "33250640"
        },
        "orbiting_body" : "Earth"
      } ],
      "orbital_data" : {
        "orbit_id" : "18",
        "orbit_determination_date" : "2017-04-06 08:49:59",
        "orbit_uncertainty" : "1",
        "minimum_orbit_intersection" : ".000598705",
        "jupiter_tisserand_invariant" : "6.064",
        "epoch_osculation" : "2458000.5",
        "eccentricity" : ".1761363543547804",
        "semi_major_axis" : ".9863184916697846",
        "inclination" : "23.01931845137059",
        "ascending_node_longitude" : "37.08913446319676",
        "orbital_period" : "357.7866979431142",
        "perihelion_distance" : ".8125919483143629",
        "perihelion_argument" : "286.5373774214684",
        "aphelion_distance" : "1.160045035025206",
        "perihelion_time" : "2457920.341094649508",
        "mean_anomaly" : "80.65477585409083",
        "mean_motion" : "1.006186093752534",
        "equinox" : "J2000"
      }
    }, {
      "links" : {
        "self" : "https://api.nasa.gov/neo/rest/v1/neo/3634129?api_key=t0TVs3DtDT2H8Oy2Zy8m2eVrNsAVKAexjcZXUckd"
      },
      "neo_reference_id" : "3634129",
      "name" : "(2013 GH)",
      "nasa_jpl_url" : "http://ssd.jpl.nasa.gov/sbdb.cgi?sstr=3634129",
      "absolute_magnitude_h" : 23.5,
      "estimated_diameter" : {
        "kilometers" : {
          "estimated_diameter_min" : 0.0530340723,
          "estimated_diameter_max" : 0.1185877909
        },
        "meters" : {
          "estimated_diameter_min" : 53.0340723319,
          "estimated_diameter_max" : 118.5877908577
        },
        "miles" : {
          "estimated_diameter_min" : 0.0329538346,
          "estimated_diameter_max" : 0.0736870142
        },
        "feet" : {
          "estimated_diameter_min" : 173.9963058693,
          "estimated_diameter_max" : 389.0675677576
        }
      },
      "is_potentially_hazardous_asteroid" : false,
      "close_approach_data" : [ {
        "close_approach_date" : "2015-04-15",
        "epoch_date_close_approach" : 1429081200000,
        "relative_velocity" : {
          "kilometers_per_second" : "7.0493684649",
          "kilometers_per_hour" : "25377.7264736495",
          "miles_per_hour" : "15768.7323191407"
        },
        "miss_distance" : {
          "astronomical" : "0.2372910106",
          "lunar" : "92.3062057495",
          "kilometers" : "35498228",
          "miles" : "22057578"
        },
        "orbiting_body" : "Earth"
      } ],
      "orbital_data" : {
        "orbit_id" : "11",
        "orbit_determination_date" : "2017-04-06 08:46:17",
        "orbit_uncertainty" : "7",
        "minimum_orbit_intersection" : ".140674",
        "jupiter_tisserand_invariant" : "4.348",
        "epoch_osculation" : "2458000.5",
        "eccentricity" : ".27515891831594",
        "semi_major_axis" : "1.572991869395246",
        "inclination" : "10.42165955469604",
        "ascending_node_longitude" : "15.27649573135989",
        "orbital_period" : "720.5898551347755",
        "perihelion_distance" : "1.140169128092682",
        "perihelion_argument" : "186.2270287490602",
        "aphelion_distance" : "2.00581461069781",
        "perihelion_time" : "2457834.196555144649",
        "mean_anomaly" : "83.08365670333902",
        "mean_motion" : ".4995907136836772",
        "equinox" : "J2000"
      }
    }, {
      "links" : {
        "self" : "https://api.nasa.gov/neo/rest/v1/neo/3713009?api_key=t0TVs3DtDT2H8Oy2Zy8m2eVrNsAVKAexjcZXUckd"
      },
      "neo_reference_id" : "3713009",
      "name" : "(2015 EZ)",
      "nasa_jpl_url" : "http://ssd.jpl.nasa.gov/sbdb.cgi?sstr=3713009",
      "absolute_magnitude_h" : 20.3,
      "estimated_diameter" : {
        "kilometers" : {
          "estimated_diameter_min" : 0.2315021222,
          "estimated_diameter_max" : 0.5176544822
        },
        "meters" : {
          "estimated_diameter_min" : 231.5021222103,
          "estimated_diameter_max" : 517.6544821978
        },
        "miles" : {
          "estimated_diameter_min" : 0.1438487052,
          "estimated_diameter_max" : 0.3216554833
        },
        "feet" : {
          "estimated_diameter_min" : 759.5214226325,
          "estimated_diameter_max" : 1698.3415313737
        }
      },
      "is_potentially_hazardous_asteroid" : false,
      "close_approach_data" : [ {
        "close_approach_date" : "2015-04-15",
        "epoch_date_close_approach" : 1429081200000,
        "relative_velocity" : {
          "kilometers_per_second" : "7.2483207112",
          "kilometers_per_hour" : "26093.9545603721",
          "miles_per_hour" : "16213.7685989156"
        },
        "miss_distance" : {
          "astronomical" : "0.1693720074",
          "lunar" : "65.8857116699",
          "kilometers" : "25337692",
          "miles" : "15744112"
        },
        "orbiting_body" : "Earth"
      } ],
      "orbital_data" : {
        "orbit_id" : "69",
        "orbit_determination_date" : "2017-04-06 08:35:11",
        "orbit_uncertainty" : "3",
        "minimum_orbit_intersection" : ".0862781",
        "jupiter_tisserand_invariant" : "4.769",
        "epoch_osculation" : "2458000.5",
        "eccentricity" : ".2837354998124443",
        "semi_major_axis" : "1.364669646214443",
        "inclination" : "13.21894033108866",
        "ascending_node_longitude" : "185.4569705808732",
        "orbital_period" : "582.2905266840985",
        "perihelion_distance" : ".9774644220669161",
        "perihelion_argument" : "65.08392814826978",
        "aphelion_distance" : "1.751874870361969",
        "perihelion_time" : "2457759.477171798107",
        "mean_anomaly" : "149.0119007204023",
        "mean_motion" : ".6182480797859613",
        "equinox" : "J2000"
      }
    } ]
  }
}